{
  "type": "FeatureCollection",
  "features": [
    {
      "type": "Feature",
      "properties": {
        "norad_id": 40889,
        "name": "GSAT0205 (GALILEO 9)",
        "group": "galileo",
        "lat": 3.3595562764689957,
        "lon": 44.1679801441388,
        "alt_km": 23234.834513068152,
        "timestamp": "2025-12-21T18:54:58.759553+00:00",
        "meta_object_name": "GSAT0205 (GALILEO 9)",
        "meta_object_id": "2015-045A",
        "meta_epoch": "2025-12-20T21:57:55.201536",
        "meta_mean_motion": 1.70473188,
        "meta_eccentricity": 0.00060952,
        "meta_inclination": 55.0008,
        "meta_ra_of_asc_node": 226.5322,
        "meta_arg_of_pericenter": 41.0262,
        "meta_mean_anomaly": 319.1287,
        "meta_ephemeris_type": 0,
        "meta_classification_type": "U",
        "meta_norad_cat_id": 40889,
        "meta_element_set_no": 999,
        "meta_rev_at_epoch": 6397,
        "meta_bstar": 0,
        "meta_mean_motion_dot": 7.2e-07,
        "meta_mean_motion_ddot": 0,
        "tle_line1": "1 40889U 15045A   25354.91522224  .00000072  00000+0  00000+0 0  9997",
        "tle_line2": "2 40889  55.0008 226.5322 0006095  41.0262 319.1287  1.70473188 63971"
      },
      "geometry": {
        "type": "Point",
        "coordinates": [
          44.1679801441388,
          3.3595562764689957
        ]
      }
    },
    {
      "type": "Feature",
      "properties": {
        "norad_id": 40890,
        "name": "GSAT0206 (GALILEO 10)",
        "group": "galileo",
        "lat": 32.04211725824813,
        "lon": -107.480892566479,
        "alt_km": 23205.86210483092,
        "timestamp": "2025-12-21T18:54:58.759585+00:00",
        "meta_object_name": "GSAT0206 (GALILEO 10)",
        "meta_object_id": "2015-045B",
        "meta_epoch": "2025-12-18T18:56:55.411008",
        "meta_mean_motion": 1.70473154,
        "meta_eccentricity": 0.00042207,
        "meta_inclination": 55.0004,
        "meta_ra_of_asc_node": 226.586,
        "meta_arg_of_pericenter": 42.9195,
        "meta_mean_anomaly": 317.2206,
        "meta_ephemeris_type": 0,
        "meta_classification_type": "U",
        "meta_norad_cat_id": 40890,
        "meta_element_set_no": 999,
        "meta_rev_at_epoch": 6396,
        "meta_bstar": 0,
        "meta_mean_motion_dot": 6.4e-07,
        "meta_mean_motion_ddot": 0,
        "tle_line1": "1 40890U 15045B   25352.78953022  .00000064  00000+0  00000+0 0  9997",
        "tle_line2": "2 40890  55.0004 226.5860 0004220  42.9195 317.2206  1.70473154 63961"
      },
      "geometry": {
        "type": "Point",
        "coordinates": [
          -107.480892566479,
          32.04211725824813
        ]
      }
    },
    {
      "type": "Feature",
      "properties": {
        "norad_id": 41174,
        "name": "GSAT0209 (GALILEO 12)",
        "group": "galileo",
        "lat": -47.313783616463326,
        "lon": 58.52606900473735,
        "alt_km": 23222.79428027758,
        "timestamp": "2025-12-21T18:54:58.759598+00:00",
        "meta_object_name": "GSAT0209 (GALILEO 12)",
        "meta_object_id": "2015-079A",
        "meta_epoch": "2025-12-20T17:12:54.927360",
        "meta_mean_motion": 1.70474584,
        "meta_eccentricity": 0.00024263,
        "meta_inclination": 55.7172,
        "meta_ra_of_asc_node": 106.1622,
        "meta_arg_of_pericenter": 346.435,
        "meta_mean_anomaly": 13.5264,
        "meta_ephemeris_type": 0,
        "meta_classification_type": "U",
        "meta_norad_cat_id": 41174,
        "meta_element_set_no": 999,
        "meta_rev_at_epoch": 6173,
        "meta_bstar": 0,
        "meta_mean_motion_dot": 0,
        "meta_mean_motion_ddot": 0,
        "tle_line1": "1 41174U 15079A   25354.71730240  .00000000  00000+0  00000+0 0  9990",
        "tle_line2": "2 41174  55.7172 106.1622 0002426 346.4350  13.5264  1.70474584 61731"
      },
      "geometry": {
        "type": "Point",
        "coordinates": [
          58.52606900473735,
          -47.313783616463326
        ]
      }
    },
    {
      "type": "Feature",
      "properties": {
        "norad_id": 41175,
        "name": "GSAT0208 (GALILEO 11)",
        "group": "galileo",
        "lat": 14.677420030494995,
        "lon": -84.15084104798964,
        "alt_km": 23225.598345706003,
        "timestamp": "2025-12-21T18:54:58.759622+00:00",
        "meta_object_name": "GSAT0208 (GALILEO 11)",
        "meta_object_id": "2015-079B",
        "meta_epoch": "2025-12-20T08:25:16.296384",
        "meta_mean_motion": 1.70474393,
        "meta_eccentricity": 0.00018076,
        "meta_inclination": 55.7157,
        "meta_ra_of_asc_node": 106.1693,
        "meta_arg_of_pericenter": 359.1842,
        "meta_mean_anomaly": 0.7815,
        "meta_ephemeris_type": 0,
        "meta_classification_type": "U",
        "meta_norad_cat_id": 41175,
        "meta_element_set_no": 999,
        "meta_rev_at_epoch": 6214,
        "meta_bstar": 0,
        "meta_mean_motion_dot": -2e-08,
        "meta_mean_motion_ddot": 0,
        "tle_line1": "1 41175U 15079B   25354.35088306 -.00000002  00000+0  00000+0 0  9993",
        "tle_line2": "2 41175  55.7157 106.1693 0001807 359.1842   0.7815  1.70474393 62146"
      },
      "geometry": {
        "type": "Point",
        "coordinates": [
          -84.15084104798964,
          14.677420030494995
        ]
      }
    },
    {
      "type": "Feature",
      "properties": {
        "norad_id": 41549,
        "name": "GSAT0211 (GALILEO 14)",
        "group": "galileo",
        "lat": 54.94122032995303,
        "lon": -50.412719420842635,
        "alt_km": 23211.331766806838,
        "timestamp": "2025-12-21T18:54:58.759648+00:00",
        "meta_object_name": "GSAT0211 (GALILEO 14)",
        "meta_object_id": "2016-030A",
        "meta_epoch": "2025-12-20T11:24:03.549312",
        "meta_mean_motion": 1.70473323,
        "meta_eccentricity": 0.00041244,
        "meta_inclination": 55.1495,
        "meta_ra_of_asc_node": 226.6105,
        "meta_arg_of_pericenter": 17.8253,
        "meta_mean_anomaly": 342.2987,
        "meta_ephemeris_type": 0,
        "meta_classification_type": "U",
        "meta_norad_cat_id": 41549,
        "meta_element_set_no": 999,
        "meta_rev_at_epoch": 5962,
        "meta_bstar": 0,
        "meta_mean_motion_dot": 7.1e-07,
        "meta_mean_motion_ddot": 0,
        "tle_line1": "1 41549U 16030A   25354.47504108  .00000071  00000+0  00000+0 0  9997",
        "tle_line2": "2 41549  55.1495 226.6105 0004124  17.8253 342.2987  1.70473323 59620"
      },
      "geometry": {
        "type": "Point",
        "coordinates": [
          -50.412719420842635,
          54.94122032995303
        ]
      }
    },
    {
      "type": "Feature",
      "properties": {
        "norad_id": 41550,
        "name": "GSAT0210 (GALILEO 13)",
        "group": "galileo",
        "lat": -51.314910206586795,
        "lon": 166.14701853331067,
        "alt_km": 23226.71215759527,
        "timestamp": "2025-12-21T18:54:58.759663+00:00",
        "meta_object_name": "GSAT0210 (GALILEO 13)",
        "meta_object_id": "2016-030B",
        "meta_epoch": "2025-12-18T23:20:38.714784",
        "meta_mean_motion": 1.70473668,
        "meta_eccentricity": 7.917e-05,
        "meta_inclination": 55.1496,
        "meta_ra_of_asc_node": 226.6499,
        "meta_arg_of_pericenter": 227.6007,
        "meta_mean_anomaly": 132.5002,
        "meta_ephemeris_type": 0,
        "meta_classification_type": "U",
        "meta_norad_cat_id": 41550,
        "meta_element_set_no": 999,
        "meta_rev_at_epoch": 5959,
        "meta_bstar": 0,
        "meta_mean_motion_dot": 6.5e-07,
        "meta_mean_motion_ddot": 0,
        "tle_line1": "1 41550U 16030B   25352.97267031  .00000065  00000+0  00000+0 0  9996",
        "tle_line2": "2 41550  55.1496 226.6499 0000791 227.6007 132.5002  1.70473668 59599"
      },
      "geometry": {
        "type": "Point",
        "coordinates": [
          166.14701853331067,
          -51.314910206586795
        ]
      }
    },
    {
      "type": "Feature",
      "properties": {
        "norad_id": 41859,
        "name": "GSAT0207 (GALILEO 15)",
        "group": "galileo",
        "lat": 47.05278754181931,
        "lon": -121.8111509568893,
        "alt_km": 23223.120296812715,
        "timestamp": "2025-12-21T18:54:58.759675+00:00",
        "meta_object_name": "GSAT0207 (GALILEO 15)",
        "meta_object_id": "2016-069A",
        "meta_epoch": "2025-12-20T10:10:36.025248",
        "meta_mean_motion": 1.7047449,
        "meta_eccentricity": 0.00023887,
        "meta_inclination": 55.3864,
        "meta_ra_of_asc_node": 106.0375,
        "meta_arg_of_pericenter": 318.3578,
        "meta_mean_anomaly": 41.5905,
        "meta_ephemeris_type": 0,
        "meta_classification_type": "U",
        "meta_norad_cat_id": 41859,
        "meta_element_set_no": 999,
        "meta_rev_at_epoch": 5635,
        "meta_bstar": 0,
        "meta_mean_motion_dot": -2e-08,
        "meta_mean_motion_ddot": 0,
        "tle_line1": "1 41859U 16069A   25354.42402807 -.00000002  00000+0  00000+0 0  9996",
        "tle_line2": "2 41859  55.3864 106.0375 0002388 318.3578  41.5905  1.70474490 56357"
      },
      "geometry": {
        "type": "Point",
        "coordinates": [
          -121.8111509568893,
          47.05278754181931
        ]
      }
    }
  ]
}